{
"type": "FeatureCollection",
"name": "buildings_81.7844_17.6829_81.8208_17.7208",
"crs": { "type": "name", "properties": { "name": "urn:ogc:def:crs:OGC:1.3:CRS84" } },
"features": [
{ "type": "Feature", "properties": { "element": "way", "id": 835495544, "building": "yes", "source": "Maxar", "bldg_type": "default", "area_m2": 17.744049058675131, "replacement_value": 12420.834341072592 }, "geometry": { "type": "Polygon", "coordinates": [ [ [ 81.7884533, 17.6900512 ], [ 81.7884771, 17.690028 ], [ 81.7885104, 17.6900589 ], [ 81.7884865, 17.6900822 ], [ 81.7884533, 17.6900512 ] ] ] } },
{ "type": "Feature", "properties": { "element": "way", "id": 835572963, "building": "yes", "source": "Maxar", "bldg_type": "default", "area_m2": 72.615383921940065, "replacement_value": 50830.768745358044 }, "geometry": { "type": "Polygon", "coordinates": [ [ [ 81.8029391, 17.716256 ], [ 81.8030164, 17.7162169 ], [ 81.8029817, 17.7161545 ], [ 81.8029043, 17.7161936 ], [ 81.8029391, 17.716256 ] ] ] } },
{ "type": "Feature", "properties": { "element": "way", "id": 835572964, "building": "yes", "source": "Maxar", "bldg_type": "default", "area_m2": 60.354125977098462, "replacement_value": 42247.88818396892 }, "geometry": { "type": "Polygon", "coordinates": [ [ [ 81.8031372, 17.7164173 ], [ 81.8031964, 17.7163958 ], [ 81.8032268, 17.7164716 ], [ 81.8031676, 17.7164931 ], [ 81.8031372, 17.7164173 ] ] ] } },
{ "type": "Feature", "properties": { "element": "way", "id": 835572965, "building": "yes", "source": "Maxar", "bldg_type": "default", "area_m2": 129.74432577599586, "replacement_value": 90821.028043197104 }, "geometry": { "type": "Polygon", "coordinates": [ [ [ 81.8029587, 17.716303 ], [ 81.803068, 17.716262 ], [ 81.8031042, 17.7163496 ], [ 81.8029949, 17.7163905 ], [ 81.8029587, 17.716303 ] ] ] } },
{ "type": "Feature", "properties": { "element": "way", "id": 835572966, "building": "yes", "source": "Maxar", "bldg_type": "default", "area_m2": 27.07720140045689, "replacement_value": 18954.040980319824 }, "geometry": { "type": "Polygon", "coordinates": [ [ [ 81.8029012, 17.7161201 ], [ 81.8029655, 17.7160968 ], [ 81.802978, 17.7161282 ], [ 81.8029137, 17.7161514 ], [ 81.8029012, 17.7161201 ] ] ] } },
{ "type": "Feature", "properties": { "element": "way", "id": 835572967, "building": "yes", "source": "Maxar", "bldg_type": "default", "area_m2": 27.469657083651541, "replacement_value": 19228.759958556078 }, "geometry": { "type": "Polygon", "coordinates": [ [ [ 81.8027234, 17.7161873 ], [ 81.8027562, 17.7161464 ], [ 81.8027923, 17.7161727 ], [ 81.8027596, 17.7162136 ], [ 81.8027234, 17.7161873 ] ] ] } },
{ "type": "Feature", "properties": { "element": "way", "id": 835572969, "building": "yes", "source": "Maxar", "bldg_type": "default", "area_m2": 26.796201018465442, "replacement_value": 18757.340712925808 }, "geometry": { "type": "Polygon", "coordinates": [ [ [ 81.8053432, 17.7149511 ], [ 81.8053758, 17.7149265 ], [ 81.8054116, 17.7149695 ], [ 81.805379, 17.7149941 ], [ 81.8053432, 17.7149511 ] ] ] } },
{ "type": "Feature", "properties": { "element": "way", "id": 835572974, "building": "yes", "source": "Maxar", "bldg_type": "default", "area_m2": 16.030516173024491, "replacement_value": 11221.361321117143 }, "geometry": { "type": "Polygon", "coordinates": [ [ [ 81.7982163, 17.7052646 ], [ 81.7982155, 17.7052192 ], [ 81.7982456, 17.7052188 ], [ 81.7982464, 17.7052641 ], [ 81.7982163, 17.7052646 ] ] ] } },
{ "type": "Feature", "properties": { "element": "way", "id": 835572975, "building": "yes", "source": "Maxar", "bldg_type": "default", "area_m2": 67.795191252461919, "replacement_value": 47456.633876723346 }, "geometry": { "type": "Polygon", "coordinates": [ [ [ 81.7980833, 17.7052015 ], [ 81.7980671, 17.7051355 ], [ 81.79815, 17.705117 ], [ 81.7981662, 17.7051831 ], [ 81.7980833, 17.7052015 ] ] ] } }
]
}
